#dP2022  7 11 18  0  0.00000000      96 __u+U ITR00 EXT  IAC
## 2218 151200.00000000   900.00000000 59771 0.7500000000000
+  114   C06C07C09C10C11C12C13C14C16C19C20C21C22C23C24C25C26
+        C27C28C29C30C32C33C34C35C36C37C39C40C41C42C43C44C45
+        C46E01E02E03E04E05E07E08E09E10E11E12E13E14E15E18E19
+        E21E24E25E26E27E30E31E33E34E36G01G02G03G04G05G06G07
+        G08G09G10G11G12G13G14G15G16G17G18G19G20G21G22G23G24
+        G25G26G27G28G29G30G31G32J02J03R01R02R03R04R05R07R08
+        R09R11R12R13R14R15R17R18R19R20R21R24  0  0  0  0  0
++        11  9 10  8  9  9 10  9 11 10 10 10 10  8  9  9  9
++         8  9  7  9  7 10  9  8  8 10  9 10  9  9  7  7  8
++         8  8  8  8  7  8  8  7  7  7  6  6  7  7  8  7  9
++         7  8  9  8  7  7  8  7 11  6  6  6  9  7  7  7  6
++         7  8  8  6  7  7  7  8  7  8  7  7  9  9  7  7  6
++         7  8  8  8  8  7  8  8  9 10  8  8  9  7  9  8  7
++         8  9  8  9  9  7  8  8  8  8  8  8  0  0  0  0  0
%c M  cc GPS ccc cccc cccc cccc cccc ccccc ccccc ccccc ccccc
%c cc cc ccc ccc cccc cccc cccc cccc ccccc ccccc ccccc ccccc
%f  0.0000000  0.000000000  0.00000000000  0.000000000000000
%f  0.0000000  0.000000000  0.00000000000  0.000000000000000
%i    0    0    0    0      0      0      0      0         0
%i    0    0    0    0      0      0      0      0         0
/* IAC                                ULTRA-RAPID PREDICTION
/* S/V CLOCKS ARE ALIGNED TO GNSS TIME                      
/* G:C1WC2W R:C1PC2P E:C1XC5X C:C2IC6I J:C1CC2S             
/* PCV:IGS14_2215 OL/AL:FES2004  NONE     YN ORB:CoN CLK:CoN
*  2022 07 11 22 30  0.00000000
PC06  -6489.614627  40258.366718 -10188.452484    374.148021
PC07  -4880.087830  26905.157580  32136.863356   -416.613342
PC09  -2514.021459  41729.655343  -2240.683041   -930.832048
PC10   2445.456868  28767.314564  31122.659849    119.283372
PC11 -13098.722129  12429.739948  21343.286308    468.689513
PC12 -15243.775923  -8272.275348  21885.085568   -579.306903
PC13 -13377.155473  29581.100746 -26938.070259     21.261954
PC14 -20231.745694   5055.401466 -18495.239919    537.364133
PC16  -7445.877643  39405.637317 -12349.713340    142.916986
PC19  11803.567573 -11639.491970  22476.709756   -189.609106
PC20  24697.734453   1110.610088  12990.008950   -963.955803
PC21 -23536.915737 -14108.727765   5006.459758   -659.267387
PC22  -8445.663056 -18223.799456  19359.328684   -962.845806
PC23  -2912.526462  19600.494103  19661.192025   -944.012280
PC24 -24261.949799   7058.789993 -11868.731345   -967.908570
PC25 -18424.303395  19944.601953   6484.323770   -708.990029
PC26 -15956.321550  -7393.190181 -21681.645544    710.893046
PC27  13559.687485  17389.886381 -17119.988743    752.752033
PC28   3852.993818  27586.550574  -1768.225416     88.889043
PC29   7874.193384 -21887.156244 -15427.980388    580.405180
PC30  15706.022815  -2700.169746 -22919.102925    500.971573
PC32  23651.870470  13942.951773  -5023.950115   -972.870937
PC33 -11793.477811  11687.829195 -22421.514556   -143.228944
PC34 -15550.989073   3880.651359  22827.033641   -360.964887
PC35  -4050.235544 -27620.776442    590.661806    361.497236
PC36  19243.211309 -19305.057021  -5945.863340   -973.973404
PC37  14767.296356   8779.395994  22009.002235   -915.911223
PC39  -9329.169883  36578.300196 -18540.596791     -0.050765
PC40  -9045.024359  20999.956491  35410.821168     -0.422865
PC41   8029.072525  18171.218975 -19549.816278    -72.823695
PC42 -25081.274994  -1902.482319 -12017.485285   -954.165654
PC43  -8431.779718  21332.670910  15866.075599      2.385520
PC44 -14180.849023 -17121.361154  16868.632739    721.003363
PC45   2635.911569 -19392.170433 -19876.986004    806.502353
PC46  24405.991200  -8393.176185  10579.568168   -426.808624
PE01 -15143.981011 -13254.761907 -21700.125029   -513.311163
PE02  15308.222610  13188.932764  21629.997862    311.359289
PE03  17510.578250  23875.594878    -65.611384   -578.003413
PE04 -22150.063342 -10088.557313 -16833.808821  -1069.334771
PE05   2460.150713  23899.974139 -17286.195170   -163.843895
PE07  13797.294931 -10026.856127  24201.004099   -686.628788
PE08  22092.878838   9904.673042  17042.358709   -561.979091
PE09 -13618.970357  10014.962308 -24291.741025   -584.304969
PE10 -18780.204660  10764.443363  20176.445859   -525.652233
PE11 -17596.339750  20279.693555  12431.064017   3043.573539
PE12 -17086.001457    -52.873180  24157.655003    -57.126916
PE13  17719.636545 -19761.822161 -13110.395648    429.778801
PE14 -13327.892767 -20135.713236   3346.392702  -1781.847450
PE15  16974.789539    154.033701 -24251.958391    733.874298
PE18  22129.476270  18534.421888 -14182.907486  -1225.234276
PE19 -15999.959091 -24779.222518   2491.472395  -5120.225301
PE21   5638.127987 -16833.327223 -23681.817755   -745.338189
PE24 -25340.623693  10377.702507  11255.632482   -719.636000
PE25  -5960.123607  16827.010277  23621.960608   -580.709430
PE26   7467.229384 -27891.359604   6502.200762  -1365.947710
PE27  24587.187901 -11036.862909 -12227.213716   -342.596900
PE30  28652.718544   1936.412568   7150.151292   -664.595155
PE31 -28897.054204  -1182.144918  -6290.692400   -499.742821
PE33  -6218.226770 -19878.119512  21029.212617   -454.776732
PE34   6400.769582  19720.259417 -21144.395354   -479.900224
PE36  -8050.387415  27917.958979  -5648.739915   -400.801696
PG01 -13880.072374  22389.117083    888.142900    323.308523
PG02  17343.413938  -7443.456744 -18104.201403   -651.570353
PG03 -14629.313201  12517.549786 -18361.911886   -304.585029
PG04  -6224.979241  16990.465882 -19401.600785   -147.030827
PG05  24938.370888  -6037.228069   6977.292289    -88.783186
PG06  11773.398736   8760.603848 -22076.384383    380.938088
PG07  -2199.888669  22854.415986  13322.681194    319.607387
PG08 -11779.209092   9653.279570  21698.715603    -75.806407
PG09   3735.047592  23137.897890 -12532.593767   -319.987016
PG10 -16675.533310 -11667.866642  17371.700761   -488.374994
PG11  18296.660295  -4284.191297 -18763.998411    -10.957569
PG12  17889.457818 -10410.619254 -16850.645097   -244.933991
PG13  16051.642825   1010.236648  21013.080648    346.584101
PG14  14827.533269  13123.417459  17753.365379   -111.906406
PG15  11106.775593 -11150.355807  20957.597993    -46.185828
PG16 -26693.426725   -832.973216   2081.741279   -514.765567
PG17  13258.603580  22810.277802  -2341.029707    635.739570
PG18   3180.795054 -22803.261402  13124.587130    116.165408
PG19  16497.676629  17607.392078 -11616.796185    182.457872
PG20  25901.488690   -398.436199  -5276.859088    504.010360
PG21 -16852.628711  16817.925123  11622.670844    161.145806
PG22 -17240.030969 -15480.932516 -12722.305222    290.742207
PG23  -5381.773532 -14595.867146  21531.177189    -32.482353
PG24  14442.331336 -21254.738964   5479.126567    199.397516
PG25   3481.549361 -15328.591265 -21669.295043    348.039126
PG26 -24987.692130  -4602.666804  -8357.505245    217.671892
PG27 -17766.861380  -4450.614870  19159.136862    220.442930
PG28  21611.770883  10133.953580  11903.229363    333.475107
PG29  -2217.679510 -23408.957349 -12328.533280   -532.648038
PG30   6309.004892  17194.917150  19240.729475   -533.760305
PG31 -14154.120057  -6325.125675 -21719.915978   -185.362185
PG32 -16163.523321 -20626.067128  -4766.044018   -173.808468
PJ02 -31203.260747  24107.290399  19843.805108     -1.574915
PJ03 -26616.140823  28699.772747  20896.811346     -0.103100
PR01 -18289.710542 -16131.617691   7456.584558     11.327493
PR02 -21175.647821  -7948.365606 -11811.159952    523.858706
PR03 -11316.080982   5032.823981 -22262.823661     60.043993
PR04   4780.065173  14767.571251 -20210.012487    150.306859
PR05  18092.372503  16541.770384  -6997.859996     96.084301
PR07  10612.865074  -5653.954640  22529.130861     37.712441
PR08  -4884.469836 -14916.446170  20173.236920    -66.154391
PR09  22290.205983  -4950.615160  11474.282343     65.268431
PR11   8473.259844 -14433.272293 -19241.550138     33.571138
PR12 -10409.596224  -6767.349509 -22253.472037     19.258924
PR13 -21730.358666   4068.688023 -12729.842734    -24.513431
PR14 -20893.185126  13424.500020   5794.307499     24.918216
PR15  -7657.783627  14254.381378  19741.178691     94.722572
PR17  -8984.745121  17110.942613  16672.960898    542.658026
PR18  -2882.000531  25281.392149   1411.815528    123.278695
PR19   3671.366814  21200.307256 -13716.015917   -195.950367
PR20  10152.440328   2168.239069 -23298.817890    -74.400240
PR21   8623.207392 -18240.500325 -15595.809396   -316.654952
PR24 -10759.538844  -1198.863579  23105.077031    103.091052
EOF
